FLOCK 4G-24             
1 62637U 25009AE  26068.72509072  .00010513  00000+0  38996-3 0  9991
2 62637  97.4061 151.5140 0001802 280.2808  79.8228 15.27784978 63732
STARLINK-36047          
1 66795U 25278E   26068.53126251  .00016027  00000+0  59027-3 0  9995
2 66795  43.0018 115.3715 0001460 254.6191 105.4499 15.27601267 15187
